NORAD_CAT_ID,OBJECT_NAME,OBJECT_TYPE,EPOCH,MEAN_MOTION,ECCENTRICITY,INCLINATION,RA_OF_ASC_NODE,ARG_OF_PERICENTER,MEAN_ANOMALY,BSTAR,MEAN_MOTION_DOT,MEAN_MOTION_DDOT,TLE_LINE0,TLE_LINE1,TLE_LINE2,SEMIMAJOR_AXIS,PERIOD,APOGEE,PERIGEE,DECAYED
51755.0,STARLINK-3460,PAYLOAD,2022-09-29 18:54:55,15.08854988,0.0002008999999999,53.2176,191.5775,47.0332,313.0828,4.2824e-05,3.94e-06,0.0,0 STARLINK-3460,1 51755U 22016AT  22272.78814603  .00000394  00000-0  42824-4 0  9996,2 51755  53.2176 191.5775 0002009  47.0332 313.0828 15.08854988 35069,6917.835,95.437,541.089,538.31,0.0
51755.0,STARLINK-3460,PAYLOAD,2022-09-30 09:13:24,15.08850252,0.0002018,53.2165,188.9017,47.15600000000001,312.9602,0.00030542,4.577e-05,0.0,0 STARLINK-3460,1 51755U 22016AT  22273.38430805  .00004577  00000-0  30542-3 0  9991,2 51755  53.2165 188.9017 0002018  47.1560 312.9602 15.08850252 34045,6917.849,95.437,541.11,538.318,0.0
51755.0,STARLINK-3460,PAYLOAD,2022-10-01 01:07:15,15.08847862,0.0002021999999999,53.2165,185.9284,43.7118,316.4034,0.0001911,2.755e-05,0.0,0 STARLINK-3460,1 51755U 22016AT  22274.04670665  .00002755  00000-0  19110-3 0  9999,2 51755  53.2165 185.9284 0002022  43.7118 316.4034 15.08847862 35259,6917.856,95.437,541.12,538.323,0.0
51755.0,STARLINK-3460,PAYLOAD,2022-10-01 10:39:34,15.08838597,0.0002044,53.2165,184.1443,43.6011,316.5142,8.7015e-06,-1.5e-06,0.0,0 STARLINK-3460,1 51755U 22016AT  22274.44414938 -.00000150  00000-0  87015-5 0  9991,2 51755  53.2165 184.1443 0002044  43.6011 316.5142 15.08838597 35315,6917.885,95.438,541.164,538.336,0.0
51755.0,STARLINK-3460,PAYLOAD,2022-10-01 20:11:52,15.088484,0.0002000999999999,53.2167,182.3602,40.8203,319.2939,0.00014109,1.958e-05,0.0,0 STARLINK-3460,1 51755U 22016AT  22274.84158487  .00001958  00000-0  14109-3 0  9997,2 51755  53.2167 182.3602 0002001  40.8203 319.2939 15.08848400 34260,6917.855,95.437,541.104,538.335,0.0
51755.0,STARLINK-3460,PAYLOAD,2022-10-02 10:30:22,15.08827678,0.0001983,53.2168,179.6839,42.3385,317.776,-0.00014631,-2.615e-05,0.0,0 STARLINK-3460,1 51755U 22016AT  22275.43775561 -.00002615  00000-0 -14631-3 0  9994,2 51755  53.2168 179.6839 0001983  42.3385 317.7760 15.08827678 35460,6917.918000000002,95.438,541.155,538.411,0.0
51755.0,STARLINK-3460,PAYLOAD,2022-10-02 18:27:17,15.0883576,0.0001896999999999,53.2164,178.197,43.6393,316.4749,7.635900000000001e-06,-1.67e-06,0.0,0 STARLINK-3460,1 51755U 22016AT  22275.76895304 -.00000167  00000-0  76359-5 0  9994,2 51755  53.2164 178.1970 0001897  43.6393 316.4749 15.08835760 34400,6917.893,95.438,541.071,538.446,0.0
51755.0,STARLINK-3460,PAYLOAD,2022-10-03 10:21:08,15.08857477,0.0001982,53.2165,175.2234,42.1259,317.9885,0.00033776,5.094e-05,0.0,0 STARLINK-3460,1 51755U 22016AT  22276.43134330  .00005094  00000-0  33776-3 0  9991,2 51755  53.2165 175.2234 0001982  42.1259 317.9885 15.08857477 35612,6917.8269999999975,95.436,541.063,538.321,0.0
51755.0,STARLINK-3460,PAYLOAD,2022-10-03 11:56:31,15.0885714,0.0002031,53.216,174.9262,41.955,318.1597,0.00049633,7.624e-05,0.0,0 STARLINK-3460,1 51755U 22016AT  22276.49758598  .00007624  00000-0  49633-3 0  9995,2 51755  53.2160 174.9262 0002031  41.9550 318.1597 15.08857140 34519,6917.828,95.436,541.0980000000002,538.288,0.0
51755.0,STARLINK-3460,PAYLOAD,2022-10-03 18:18:03,15.08864504,0.0001940999999999,53.2156,173.7368,43.0188,317.0956,0.00085059,0.00013284,0.0,0 STARLINK-3460,1 51755U 22016AT  22276.76254540  .00013284  00000-0  85059-3 0  9994,2 51755  53.2156 173.7368 0001941  43.0188 317.0956 15.08864504 34550,6917.805,95.436,541.013,538.328,0.0
51755.0,STARLINK-3460,PAYLOAD,2022-10-04 02:14:59,15.08854602,0.0001938,53.2162,172.2508,42.8484,317.2658,0.00033917,5.116e-05,0.0,0 STARLINK-3460,1 51755U 22016AT  22277.09374305  .00005116  00000-0  33917-3 0  9994,2 51755  53.2162 172.2508 0001938  42.8484 317.2658 15.08854602 35717,6917.8359999999975,95.437,541.0409999999998,538.36,0.0
51755.0,STARLINK-3460,PAYLOAD,2022-10-04 11:47:18,15.08850513,0.000193,53.2164,170.4663,42.2489,317.8652,0.00020182,2.926e-05,0.0,0 STARLINK-3460,1 51755U 22016AT  22277.49118107  .00002926  00000-0  20182-3 0  9990,2 51755  53.2164 170.4663 0001930  42.2489 317.8652 15.08850513 34662,6917.848000000001,95.437,541.048,538.378,0.0
51755.0,STARLINK-3460,PAYLOAD,2022-10-04 19:44:14,15.08839921,0.0001785,53.2163,168.9785,48.8824,311.2322,6.1395e-05,6.89e-06,0.0,0 STARLINK-3460,1 51755U 22016AT  22277.82238680  .00000689  00000-0  61395-4 0  9992,2 51755  53.2163 168.9785 0001785  48.8824 311.2322 15.08839921 34719,6917.880999999999,95.438,540.98,538.511,0.0
51755.0,STARLINK-3460,PAYLOAD,2022-10-05 00:30:24,15.08831555,0.0002028,53.2166,168.0867,43.0131,317.1019,-9.9238e-05,-1.867e-05,0.0,0 STARLINK-3460,1 51755U 22016AT  22278.02111129 -.00001867  00000-0 -99238-4 0  9991,2 51755  53.2166 168.0867 0002028  43.0131 317.1019 15.08831555 35852,6917.906,95.438,541.174,538.368,0.0
51755.0,STARLINK-3460,PAYLOAD,2022-10-05 10:02:42,15.08844612,0.0001995,53.2171,166.3031,42.5973,317.5173,-3.4814e-05,-8.42e-06,0.0,0 STARLINK-3460,1 51755U 22016AT  22278.41854968 -.00000842  00000-0 -34814-4 0  9990,2 51755  53.2171 166.3031 0001995  42.5973 317.5173 15.08844612 35912,6917.866,95.437,541.111,538.351,0.0
51755.0,STARLINK-3460,PAYLOAD,2022-10-05 21:10:25,15.08818777,0.000155,53.2175,164.217,46.9037,313.2084,0.00019966,2.889e-05,0.0,0 STARLINK-3460,1 51755U 22016AT  22278.88224050  .00002889  00000-0  19966-3 0  9995,2 51755  53.2175 164.2170 0001550  46.9037 313.2084 15.08818777 34874,6917.945,95.439,540.883,538.738,0.0
51755.0,STARLINK-3460,PAYLOAD,2022-10-06 01:56:34,15.08832537,0.0001703,53.2181,163.3258,52.5028,307.6119,-0.0001072999999999,-1.995e-05,0.0,0 STARLINK-3460,1 51755U 22016AT  22279.08095989 -.00001995  00000-0 -10730-3 0  9994,2 51755  53.2181 163.3258 0001703  52.5028 307.6119 15.08832537 36015,6917.903,95.438,540.946,538.59,0.0
51755.0,STARLINK-3460,PAYLOAD,2022-10-06 11:28:52,15.08844499,0.0001868,53.2171,161.5449,45.2247,314.8897,2.284e-05,7.5e-07,0.0,0 STARLINK-3460,1 51755U 22016AT  22279.47839068  .00000075  00000-0  22840-4 0  9993,2 51755  53.2171 161.5449 0001868  45.2247 314.8897 15.08844499 34965,6917.8669999999975,95.437,541.024,538.439,0.0
51755.0,STARLINK-3460,PAYLOAD,2022-10-06 19:25:48,15.08841432,0.0001862,53.2165,160.0577,43.4982,316.6157,0.00028315,4.221e-05,0.0,0 STARLINK-3460,1 51755U 22016AT  22279.80959457  .00004221  00000-0  28315-3 0  9994,2 51755  53.2165 160.0577 0001862  43.4982 316.6157 15.08841432 35014,6917.876,95.437,541.029,538.453,0.0
51755.0,STARLINK-3460,PAYLOAD,2022-10-06 22:36:36,15.08822676,0.0002017,53.2167,159.4646,38.8977,321.216,7.6679e-06,-1.66e-06,0.0,0 STARLINK-3460,1 51755U 22016AT  22279.94208526 -.00000166  00000-0  76679-5 0  9996,2 51755  53.2167 159.4646 0002017  38.8977 321.2160 15.08822676 35037,6917.933000000001,95.439,541.194,538.403,0.0
51755.0,STARLINK-3460,PAYLOAD,2022-10-07 20:51:59,15.08835236,0.0001878,53.2163,155.3004,41.1683,318.9451,0.00021809,3.184e-05,0.0,0 STARLINK-3460,1 51755U 22016AT  22280.86944321  .00003184  00000-0  21809-3 0  9994,2 51755  53.2163 155.3004 0001878  41.1683 318.9451 15.08835236 36281,6917.895,95.438,541.059,538.461,0.0
51755.0,STARLINK-3460,PAYLOAD,2022-10-08 11:10:28,15.08837357,0.0002011,53.2164,152.6247,37.6973,322.416,8.1488e-05,1.009e-05,0.0,0 STARLINK-3460,1 51755U 22016AT  22281.46560436  .00001009  00000-0  81488-4 0  9996,2 51755  53.2164 152.6247 0002011  37.6973 322.4160 15.08837357 35263,6917.888000000001,95.438,541.145,538.362,0.0
51755.0,STARLINK-3460,PAYLOAD,2022-10-08 20:42:47,15.08832187,0.0001844,53.2161,150.8395,46.3074,313.8071,-4.0384e-05,-9.31e-06,0.0,0 STARLINK-3460,1 51755U 22016AT  22281.86304932 -.00000931  00000-0 -40384-4 0  9992,2 51755  53.2161 150.8395 0001844  46.3074 313.8071 15.08832187 36437,6917.904,95.438,541.045,538.494,0.0
51755.0,STARLINK-3460,PAYLOAD,2022-10-09 11:01:15,15.08836485,0.0001978,53.2163,148.1638,38.9195,321.1939,0.00022736,3.332e-05,0.0,0 STARLINK-3460,1 51755U 22016AT  22282.45920992  .00003332  00000-0  22736-3 0  9994,2 51755  53.2163 148.1638 0001978  38.9195 321.1939 15.08836485 35415,6917.891,95.438,541.124,538.388,0.0
51755.0,STARLINK-3460,PAYLOAD,2022-10-09 18:58:11,15.08854986,0.0002000999999999,53.2161,146.6773,40.2543,319.8597,0.00062189,9.627e-05,0.0,0 STARLINK-3460,1 51755U 22016AT  22282.79040553  .00009627  00000-0  62189-3 0  9996,2 51755  53.2161 146.6773 0002001  40.2543 319.8597 15.08854986 36575,6917.835,95.437,541.0840000000002,538.315,0.0
51755.0,STARLINK-3460,PAYLOAD,2022-10-09 20:33:34,15.08852652,0.0001817,53.2164,146.3791,43.6417,316.4719,0.00058706,9.071e-05,0.0,0 STARLINK-3460,1 51755U 22016AT  22282.85664555  .00009071  00000-0  58706-3 0  9990,2 51755  53.2164 146.3791 0001817  43.6417 316.4719 15.08852652 35471,6917.842,95.437,540.964,538.45,0.0
51755.0,STARLINK-3460,PAYLOAD,2022-10-10 01:19:43,15.08848678,0.0001948,53.2159,145.4886,42.4186,317.6957,0.00043911,6.709e-05,0.0,0 STARLINK-3460,1 51755U 22016AT  22283.05536739  .00006709  00000-0  43911-3 0  9992,2 51755  53.2159 145.4886 0001948  42.4186 317.6957 15.08848678 36612,6917.854,95.437,541.066,538.371,0.0
51755.0,STARLINK-3460,PAYLOAD,2022-10-10 12:27:25,15.088362900000002,0.0001946,53.2162,143.4066,44.2006,315.9142,0.00011889,1.604e-05,0.0,0 STARLINK-3460,1 51755U 22016AT  22283.51904977  .00001604  00000-0  11889-3 0  9994,2 51755  53.2162 143.4066 0001946  44.2006 315.9142 15.08836290 35571,6917.892,95.438,541.1030000000002,538.411,0.0
51755.0,STARLINK-3460,PAYLOAD,2022-10-10 17:13:35,15.08838604,0.0001953,53.217,142.5141,43.0875,317.027,0.00014856,2.077e-05,0.0,0 STARLINK-3460,1 51755U 22016AT  22283.71776859  .00002077  00000-0  14856-3 0  9994,2 51755  53.2170 142.5141 0001953  43.0875 317.0270 15.08838604 35603,6917.885,95.438,541.101,538.399,0.0
